{
  "type": "FeatureCollection",
  "features": [
    {
      "type": "Feature",
      "properties": {
        "STATEFP": "18",
        "COUNTYFP": "089",
        "GEOID": "18089",
        "NAME": "Lake",
        "NAMELSAD": "Lake County",
        "state_abbr": "IN",
        "state_name": "Indiana"
      },
      "geometry": {
        "type": "Polygon",
        "coordinates": [
          [
            [
              -87.45,
              41.35
            ],
            [
              -87.14999999999999,
              41.35
            ],
            [
              -87.14999999999999,
              41.65
            ],
            [
              -87.45,
              41.65
            ],
            [
              -87.45,
              41.35
            ]
          ]
        ]
      }
    },
    {
      "type": "Feature",
      "properties": {
        "STATEFP": "18",
        "COUNTYFP": "127",
        "GEOID": "18127",
        "NAME": "Porter",
        "NAMELSAD": "Porter County",
        "state_abbr": "IN",
        "state_name": "Indiana"
      },
      "geometry": {
        "type": "Polygon",
        "coordinates": [
          [
            [
              -87.25,
              41.35
            ],
            [
              -86.94999999999999,
              41.35
            ],
            [
              -86.94999999999999,
              41.65
            ],
            [
              -87.25,
              41.65
            ],
            [
              -87.25,
              41.35
            ]
          ]
        ]
      }
    },
    {
      "type": "Feature",
      "properties": {
        "STATEFP": "18",
        "COUNTYFP": "091",
        "GEOID": "18091",
        "NAME": "LaPorte",
        "NAMELSAD": "LaPorte County",
        "state_abbr": "IN",
        "state_name": "Indiana"
      },
      "geometry": {
        "type": "Polygon",
        "coordinates": [
          [
            [
              -86.85000000000001,
              41.45
            ],
            [
              -86.55,
              41.45
            ],
            [
              -86.55,
              41.75
            ],
            [
              -86.85000000000001,
              41.75
            ],
            [
              -86.85000000000001,
              41.45
            ]
          ]
        ]
      }
    },
    {
      "type": "Feature",
      "properties": {
        "STATEFP": "18",
        "COUNTYFP": "141",
        "GEOID": "18141",
        "NAME": "St. Joseph",
        "NAMELSAD": "St. Joseph County",
        "state_abbr": "IN",
        "state_name": "Indiana"
      },
      "geometry": {
        "type": "Polygon",
        "coordinates": [
          [
            [
              -86.35000000000001,
              41.550000000000004
            ],
            [
              -86.05,
              41.550000000000004
            ],
            [
              -86.05,
              41.85
            ],
            [
              -86.35000000000001,
              41.85
            ],
            [
              -86.35000000000001,
              41.550000000000004
            ]
          ]
        ]
      }
    },
    {
      "type": "Feature",
      "properties": {
        "STATEFP": "18",
        "COUNTYFP": "039",
        "GEOID": "18039",
        "NAME": "Elkhart",
        "NAMELSAD": "Elkhart County",
        "state_abbr": "IN",
        "state_name": "Indiana"
      },
      "geometry": {
        "type": "Polygon",
        "coordinates": [
          [
            [
              -86.05000000000001,
              41.550000000000004
            ],
            [
              -85.75,
              41.550000000000004
            ],
            [
              -85.75,
              41.85
            ],
            [
              -86.05000000000001,
              41.85
            ],
            [
              -86.05000000000001,
              41.550000000000004
            ]
          ]
        ]
      }
    },
    {
      "type": "Feature",
      "properties": {
        "STATEFP": "18",
        "COUNTYFP": "097",
        "GEOID": "18097",
        "NAME": "Marion",
        "NAMELSAD": "Marion County",
        "state_abbr": "IN",
        "state_name": "Indiana"
      },
      "geometry": {
        "type": "Polygon",
        "coordinates": [
          [
            [
              -86.25,
              39.65
            ],
            [
              -85.94999999999999,
              39.65
            ],
            [
              -85.94999999999999,
              39.949999999999996
            ],
            [
              -86.25,
              39.949999999999996
            ],
            [
              -86.25,
              39.65
            ]
          ]
        ]
      }
    },
    {
      "type": "Feature",
      "properties": {
        "STATEFP": "18",
        "COUNTYFP": "057",
        "GEOID": "18057",
        "NAME": "Hamilton",
        "NAMELSAD": "Hamilton County",
        "state_abbr": "IN",
        "state_name": "Indiana"
      },
      "geometry": {
        "type": "Polygon",
        "coordinates": [
          [
            [
              -86.15,
              39.95
            ],
            [
              -85.85,
              39.95
            ],
            [
              -85.85,
              40.25
            ],
            [
              -86.15,
              40.25
            ],
            [
              -86.15,
              39.95
            ]
          ]
        ]
      }
    },
    {
      "type": "Feature",
      "properties": {
        "STATEFP": "18",
        "COUNTYFP": "003",
        "GEOID": "18003",
        "NAME": "Allen",
        "NAMELSAD": "Allen County",
        "state_abbr": "IN",
        "state_name": "Indiana"
      },
      "geometry": {
        "type": "Polygon",
        "coordinates": [
          [
            [
              -85.25,
              40.95
            ],
            [
              -84.94999999999999,
              40.95
            ],
            [
              -84.94999999999999,
              41.25
            ],
            [
              -85.25,
              41.25
            ],
            [
              -85.25,
              40.95
            ]
          ]
        ]
      }
    },
    {
      "type": "Feature",
      "properties": {
        "STATEFP": "18",
        "COUNTYFP": "163",
        "GEOID": "18163",
        "NAME": "Vanderburgh",
        "NAMELSAD": "Vanderburgh County",
        "state_abbr": "IN",
        "state_name": "Indiana"
      },
      "geometry": {
        "type": "Polygon",
        "coordinates": [
          [
            [
              -87.75,
              37.85
            ],
            [
              -87.44999999999999,
              37.85
            ],
            [
              -87.44999999999999,
              38.15
            ],
            [
              -87.75,
              38.15
            ],
            [
              -87.75,
              37.85
            ]
          ]
        ]
      }
    },
    {
      "type": "Feature",
      "properties": {
        "STATEFP": "18",
        "COUNTYFP": "157",
        "GEOID": "18157",
        "NAME": "Tippecanoe",
        "NAMELSAD": "Tippecanoe County",
        "state_abbr": "IN",
        "state_name": "Indiana"
      },
      "geometry": {
        "type": "Polygon",
        "coordinates": [
          [
            [
              -87.15,
              40.25
            ],
            [
              -86.85,
              40.25
            ],
            [
              -86.85,
              40.55
            ],
            [
              -87.15,
              40.55
            ],
            [
              -87.15,
              40.25
            ]
          ]
        ]
      }
    }
  ]
}