{
  "type": "FeatureCollection",
  "features": [
    {
      "type": "Feature",
      "properties": {
        "NAME": "Jackson",
        "STATEFP": "29",
        "COUNTYFP": "095",
        "GEOID": "29095",
        "state_abbr": "MI"
      },
      "geometry": {
        "type": "Polygon",
        "coordinates": [
          [
            [
              -94.67859999999999,
              38.9997
            ],
            [
              -94.4786,
              38.9997
            ],
            [
              -94.4786,
              39.1997
            ],
            [
              -94.67859999999999,
              39.1997
            ],
            [
              -94.67859999999999,
              38.9997
            ]
          ]
        ]
      }
    },
    {
      "type": "Feature",
      "properties": {
        "NAME": "Clay",
        "STATEFP": "29",
        "COUNTYFP": "047",
        "GEOID": "29047",
        "state_abbr": "MI"
      },
      "geometry": {
        "type": "Polygon",
        "coordinates": [
          [
            [
              -94.5191,
              39.1461
            ],
            [
              -94.3191,
              39.1461
            ],
            [
              -94.3191,
              39.3461
            ],
            [
              -94.5191,
              39.3461
            ],
            [
              -94.5191,
              39.1461
            ]
          ]
        ]
      }
    },
    {
      "type": "Feature",
      "properties": {
        "NAME": "Ray",
        "STATEFP": "29",
        "COUNTYFP": "177",
        "GEOID": "29177",
        "state_abbr": "MI"
      },
      "geometry": {
        "type": "Polygon",
        "coordinates": [
          [
            [
              -94.30189999999999,
              39.3394
            ],
            [
              -94.1019,
              39.3394
            ],
            [
              -94.1019,
              39.5394
            ],
            [
              -94.30189999999999,
              39.5394
            ],
            [
              -94.30189999999999,
              39.3394
            ]
          ]
        ]
      }
    },
    {
      "type": "Feature",
      "properties": {
        "NAME": "DeKalb",
        "STATEFP": "29",
        "COUNTYFP": "063",
        "GEOID": "29063",
        "state_abbr": "MI"
      },
      "geometry": {
        "type": "Polygon",
        "coordinates": [
          [
            [
              -94.34129999999999,
              39.6394
            ],
            [
              -94.1413,
              39.6394
            ],
            [
              -94.1413,
              39.839400000000005
            ],
            [
              -94.34129999999999,
              39.839400000000005
            ],
            [
              -94.34129999999999,
              39.6394
            ]
          ]
        ]
      }
    },
    {
      "type": "Feature",
      "properties": {
        "NAME": "Daviess",
        "STATEFP": "29",
        "COUNTYFP": "061",
        "GEOID": "29061",
        "state_abbr": "MI"
      },
      "geometry": {
        "type": "Polygon",
        "coordinates": [
          [
            [
              -94.0619,
              39.8139
            ],
            [
              -93.8619,
              39.8139
            ],
            [
              -93.8619,
              40.0139
            ],
            [
              -94.0619,
              40.0139
            ],
            [
              -94.0619,
              39.8139
            ]
          ]
        ]
      }
    }
  ]
}