{
  "type": "FeatureCollection",
  "features": [
    {
      "type": "Feature",
      "properties": {
        "STATEFP": "29",
        "COUNTYFP": "189",
        "GEOID": "29189",
        "NAME": "St. Louis",
        "NAMELSAD": "St. Louis County",
        "state_abbr": "MO",
        "state_name": "Missouri"
      },
      "geometry": {
        "type": "Polygon",
        "coordinates": [
          [
            [
              -90.65,
              38.45
            ],
            [
              -90.35,
              38.45
            ],
            [
              -90.35,
              38.75
            ],
            [
              -90.65,
              38.75
            ],
            [
              -90.65,
              38.45
            ]
          ]
        ]
      }
    },
    {
      "type": "Feature",
      "properties": {
        "STATEFP": "29",
        "COUNTYFP": "095",
        "GEOID": "29095",
        "NAME": "Jackson",
        "NAMELSAD": "Jackson County",
        "state_abbr": "MO",
        "state_name": "Missouri"
      },
      "geometry": {
        "type": "Polygon",
        "coordinates": [
          [
            [
              -94.55000000000001,
              38.85
            ],
            [
              -94.25,
              38.85
            ],
            [
              -94.25,
              39.15
            ],
            [
              -94.55000000000001,
              39.15
            ],
            [
              -94.55000000000001,
              38.85
            ]
          ]
        ]
      }
    },
    {
      "type": "Feature",
      "properties": {
        "STATEFP": "29",
        "COUNTYFP": "183",
        "GEOID": "29183",
        "NAME": "St. Charles",
        "NAMELSAD": "St. Charles County",
        "state_abbr": "MO",
        "state_name": "Missouri"
      },
      "geometry": {
        "type": "Polygon",
        "coordinates": [
          [
            [
              -90.75,
              38.65
            ],
            [
              -90.44999999999999,
              38.65
            ],
            [
              -90.44999999999999,
              38.949999999999996
            ],
            [
              -90.75,
              38.949999999999996
            ],
            [
              -90.75,
              38.65
            ]
          ]
        ]
      }
    },
    {
      "type": "Feature",
      "properties": {
        "STATEFP": "29",
        "COUNTYFP": "099",
        "GEOID": "29099",
        "NAME": "Jefferson",
        "NAMELSAD": "Jefferson County",
        "state_abbr": "MO",
        "state_name": "Missouri"
      },
      "geometry": {
        "type": "Polygon",
        "coordinates": [
          [
            [
              -90.55000000000001,
              38.25
            ],
            [
              -90.25,
              38.25
            ],
            [
              -90.25,
              38.55
            ],
            [
              -90.55000000000001,
              38.55
            ],
            [
              -90.55000000000001,
              38.25
            ]
          ]
        ]
      }
    },
    {
      "type": "Feature",
      "properties": {
        "STATEFP": "29",
        "COUNTYFP": "047",
        "GEOID": "29047",
        "NAME": "Clay",
        "NAMELSAD": "Clay County",
        "state_abbr": "MO",
        "state_name": "Missouri"
      },
      "geometry": {
        "type": "Polygon",
        "coordinates": [
          [
            [
              -94.55000000000001,
              39.15
            ],
            [
              -94.25,
              39.15
            ],
            [
              -94.25,
              39.449999999999996
            ],
            [
              -94.55000000000001,
              39.449999999999996
            ],
            [
              -94.55000000000001,
              39.15
            ]
          ]
        ]
      }
    },
    {
      "type": "Feature",
      "properties": {
        "STATEFP": "29",
        "COUNTYFP": "019",
        "GEOID": "29019",
        "NAME": "Boone",
        "NAMELSAD": "Boone County",
        "state_abbr": "MO",
        "state_name": "Missouri"
      },
      "geometry": {
        "type": "Polygon",
        "coordinates": [
          [
            [
              -92.45,
              38.75
            ],
            [
              -92.14999999999999,
              38.75
            ],
            [
              -92.14999999999999,
              39.05
            ],
            [
              -92.45,
              39.05
            ],
            [
              -92.45,
              38.75
            ]
          ]
        ]
      }
    },
    {
      "type": "Feature",
      "properties": {
        "STATEFP": "29",
        "COUNTYFP": "077",
        "GEOID": "29077",
        "NAME": "Greene",
        "NAMELSAD": "Greene County",
        "state_abbr": "MO",
        "state_name": "Missouri"
      },
      "geometry": {
        "type": "Polygon",
        "coordinates": [
          [
            [
              -93.45,
              37.050000000000004
            ],
            [
              -93.14999999999999,
              37.050000000000004
            ],
            [
              -93.14999999999999,
              37.35
            ],
            [
              -93.45,
              37.35
            ],
            [
              -93.45,
              37.050000000000004
            ]
          ]
        ]
      }
    },
    {
      "type": "Feature",
      "properties": {
        "STATEFP": "29",
        "COUNTYFP": "165",
        "GEOID": "29165",
        "NAME": "Platte",
        "NAMELSAD": "Platte County",
        "state_abbr": "MO",
        "state_name": "Missouri"
      },
      "geometry": {
        "type": "Polygon",
        "coordinates": [
          [
            [
              -94.85000000000001,
              39.25
            ],
            [
              -94.55,
              39.25
            ],
            [
              -94.55,
              39.55
            ],
            [
              -94.85000000000001,
              39.55
            ],
            [
              -94.85000000000001,
              39.25
            ]
          ]
        ]
      }
    },
    {
      "type": "Feature",
      "properties": {
        "STATEFP": "29",
        "COUNTYFP": "037",
        "GEOID": "29037",
        "NAME": "Cass",
        "NAMELSAD": "Cass County",
        "state_abbr": "MO",
        "state_name": "Missouri"
      },
      "geometry": {
        "type": "Polygon",
        "coordinates": [
          [
            [
              -94.55000000000001,
              38.550000000000004
            ],
            [
              -94.25,
              38.550000000000004
            ],
            [
              -94.25,
              38.85
            ],
            [
              -94.55000000000001,
              38.85
            ],
            [
              -94.55000000000001,
              38.550000000000004
            ]
          ]
        ]
      }
    },
    {
      "type": "Feature",
      "properties": {
        "STATEFP": "29",
        "COUNTYFP": "021",
        "GEOID": "29021",
        "NAME": "Buchanan",
        "NAMELSAD": "Buchanan County",
        "state_abbr": "MO",
        "state_name": "Missouri"
      },
      "geometry": {
        "type": "Polygon",
        "coordinates": [
          [
            [
              -94.95,
              39.550000000000004
            ],
            [
              -94.64999999999999,
              39.550000000000004
            ],
            [
              -94.64999999999999,
              39.85
            ],
            [
              -94.95,
              39.85
            ],
            [
              -94.95,
              39.550000000000004
            ]
          ]
        ]
      }
    }
  ]
}