{
  "type": "FeatureCollection",
  "features": [
    {
      "type": "Feature",
      "properties": {
        "STATEFP": "55",
        "COUNTYFP": "079",
        "GEOID": "55079",
        "NAME": "Milwaukee",
        "NAMELSAD": "Milwaukee County",
        "state_abbr": "WI",
        "state_name": "Wisconsin"
      },
      "geometry": {
        "type": "Polygon",
        "coordinates": [
          [
            [
              -88.15,
              42.85
            ],
            [
              -87.85,
              42.85
            ],
            [
              -87.85,
              43.15
            ],
            [
              -88.15,
              43.15
            ],
            [
              -88.15,
              42.85
            ]
          ]
        ]
      }
    },
    {
      "type": "Feature",
      "properties": {
        "STATEFP": "55",
        "COUNTYFP": "025",
        "GEOID": "55025",
        "NAME": "Dane",
        "NAMELSAD": "Dane County",
        "state_abbr": "WI",
        "state_name": "Wisconsin"
      },
      "geometry": {
        "type": "Polygon",
        "coordinates": [
          [
            [
              -89.55000000000001,
              42.95
            ],
            [
              -89.25,
              42.95
            ],
            [
              -89.25,
              43.25
            ],
            [
              -89.55000000000001,
              43.25
            ],
            [
              -89.55000000000001,
              42.95
            ]
          ]
        ]
      }
    },
    {
      "type": "Feature",
      "properties": {
        "STATEFP": "55",
        "COUNTYFP": "133",
        "GEOID": "55133",
        "NAME": "Waukesha",
        "NAMELSAD": "Waukesha County",
        "state_abbr": "WI",
        "state_name": "Wisconsin"
      },
      "geometry": {
        "type": "Polygon",
        "coordinates": [
          [
            [
              -88.45,
              42.85
            ],
            [
              -88.14999999999999,
              42.85
            ],
            [
              -88.14999999999999,
              43.15
            ],
            [
              -88.45,
              43.15
            ],
            [
              -88.45,
              42.85
            ]
          ]
        ]
      }
    },
    {
      "type": "Feature",
      "properties": {
        "STATEFP": "55",
        "COUNTYFP": "009",
        "GEOID": "55009",
        "NAME": "Brown",
        "NAMELSAD": "Brown County",
        "state_abbr": "WI",
        "state_name": "Wisconsin"
      },
      "geometry": {
        "type": "Polygon",
        "coordinates": [
          [
            [
              -88.15,
              44.35
            ],
            [
              -87.85,
              44.35
            ],
            [
              -87.85,
              44.65
            ],
            [
              -88.15,
              44.65
            ],
            [
              -88.15,
              44.35
            ]
          ]
        ]
      }
    },
    {
      "type": "Feature",
      "properties": {
        "STATEFP": "55",
        "COUNTYFP": "101",
        "GEOID": "55101",
        "NAME": "Racine",
        "NAMELSAD": "Racine County",
        "state_abbr": "WI",
        "state_name": "Wisconsin"
      },
      "geometry": {
        "type": "Polygon",
        "coordinates": [
          [
            [
              -87.95,
              42.550000000000004
            ],
            [
              -87.64999999999999,
              42.550000000000004
            ],
            [
              -87.64999999999999,
              42.85
            ],
            [
              -87.95,
              42.85
            ],
            [
              -87.95,
              42.550000000000004
            ]
          ]
        ]
      }
    },
    {
      "type": "Feature",
      "properties": {
        "STATEFP": "55",
        "COUNTYFP": "087",
        "GEOID": "55087",
        "NAME": "Outagamie",
        "NAMELSAD": "Outagamie County",
        "state_abbr": "WI",
        "state_name": "Wisconsin"
      },
      "geometry": {
        "type": "Polygon",
        "coordinates": [
          [
            [
              -88.55000000000001,
              44.25
            ],
            [
              -88.25,
              44.25
            ],
            [
              -88.25,
              44.55
            ],
            [
              -88.55000000000001,
              44.55
            ],
            [
              -88.55000000000001,
              44.25
            ]
          ]
        ]
      }
    },
    {
      "type": "Feature",
      "properties": {
        "STATEFP": "55",
        "COUNTYFP": "059",
        "GEOID": "55059",
        "NAME": "Kenosha",
        "NAMELSAD": "Kenosha County",
        "state_abbr": "WI",
        "state_name": "Wisconsin"
      },
      "geometry": {
        "type": "Polygon",
        "coordinates": [
          [
            [
              -87.95,
              42.45
            ],
            [
              -87.64999999999999,
              42.45
            ],
            [
              -87.64999999999999,
              42.75
            ],
            [
              -87.95,
              42.75
            ],
            [
              -87.95,
              42.45
            ]
          ]
        ]
      }
    },
    {
      "type": "Feature",
      "properties": {
        "STATEFP": "55",
        "COUNTYFP": "105",
        "GEOID": "55105",
        "NAME": "Rock",
        "NAMELSAD": "Rock County",
        "state_abbr": "WI",
        "state_name": "Wisconsin"
      },
      "geometry": {
        "type": "Polygon",
        "coordinates": [
          [
            [
              -89.15,
              42.550000000000004
            ],
            [
              -88.85,
              42.550000000000004
            ],
            [
              -88.85,
              42.85
            ],
            [
              -89.15,
              42.85
            ],
            [
              -89.15,
              42.550000000000004
            ]
          ]
        ]
      }
    },
    {
      "type": "Feature",
      "properties": {
        "STATEFP": "55",
        "COUNTYFP": "139",
        "GEOID": "55139",
        "NAME": "Winnebago",
        "NAMELSAD": "Winnebago County",
        "state_abbr": "WI",
        "state_name": "Wisconsin"
      },
      "geometry": {
        "type": "Polygon",
        "coordinates": [
          [
            [
              -88.65,
              43.85
            ],
            [
              -88.35,
              43.85
            ],
            [
              -88.35,
              44.15
            ],
            [
              -88.65,
              44.15
            ],
            [
              -88.65,
              43.85
            ]
          ]
        ]
      }
    },
    {
      "type": "Feature",
      "properties": {
        "STATEFP": "55",
        "COUNTYFP": "131",
        "GEOID": "55131",
        "NAME": "Washington",
        "NAMELSAD": "Washington County",
        "state_abbr": "WI",
        "state_name": "Wisconsin"
      },
      "geometry": {
        "type": "Polygon",
        "coordinates": [
          [
            [
              -88.35000000000001,
              43.25
            ],
            [
              -88.05,
              43.25
            ],
            [
              -88.05,
              43.55
            ],
            [
              -88.35000000000001,
              43.55
            ],
            [
              -88.35000000000001,
              43.25
            ]
          ]
        ]
      }
    }
  ]
}