{
  "type": "FeatureCollection",
  "features": [
    {
      "type": "Feature",
      "properties": {
        "NAME": "Milwaukee",
        "STATEFP": "55",
        "COUNTYFP": "079",
        "GEOID": "55079",
        "state_abbr": "WI"
      },
      "geometry": {
        "type": "Polygon",
        "coordinates": [
          [
            [
              -88.00649999999999,
              42.9389
            ],
            [
              -87.8065,
              42.9389
            ],
            [
              -87.8065,
              43.1389
            ],
            [
              -88.00649999999999,
              43.1389
            ],
            [
              -88.00649999999999,
              42.9389
            ]
          ]
        ]
      }
    },
    {
      "type": "Feature",
      "properties": {
        "NAME": "Racine",
        "STATEFP": "55",
        "COUNTYFP": "101",
        "GEOID": "55101",
        "state_abbr": "WI"
      },
      "geometry": {
        "type": "Polygon",
        "coordinates": [
          [
            [
              -87.88289999999999,
              42.6261
            ],
            [
              -87.6829,
              42.6261
            ],
            [
              -87.6829,
              42.826100000000004
            ],
            [
              -87.88289999999999,
              42.826100000000004
            ],
            [
              -87.88289999999999,
              42.6261
            ]
          ]
        ]
      }
    },
    {
      "type": "Feature",
      "properties": {
        "NAME": "Kenosha",
        "STATEFP": "55",
        "COUNTYFP": "059",
        "GEOID": "55059",
        "state_abbr": "WI"
      },
      "geometry": {
        "type": "Polygon",
        "coordinates": [
          [
            [
              -87.9212,
              42.4847
            ],
            [
              -87.72120000000001,
              42.4847
            ],
            [
              -87.72120000000001,
              42.6847
            ],
            [
              -87.9212,
              42.6847
            ],
            [
              -87.9212,
              42.4847
            ]
          ]
        ]
      }
    }
  ]
}